CCSDS_OMM_VERS = 2.0
CREATION_DATE  = 
ORIGINATOR     = 

OBJECT_NAME    = HULIANWANG DIGUI-124
OBJECT_ID      = 2025-295F
CENTER_NAME    = EARTH
REF_FRAME      = TEME
TIME_SYSTEM    = UTC
MEAN_ELEMENT_THEORY = SGP/SGP4

EPOCH          = 2026-01-04T06:40:33.228768
MEAN_MOTION    = 14.24631287
ECCENTRICITY   = .00118246
INCLINATION    = 50.0008
RA_OF_ASC_NODE = 277.1086
ARG_OF_PERICENTER = 325.2155
MEAN_ANOMALY   = 34.7985

EPHEMERIS_TYPE = 0
CLASSIFICATION_TYPE = U
NORAD_CAT_ID   = 67064
ELEMENT_SET_NO = 999
REV_AT_EPOCH   = 333
BSTAR          = .28311604E-3
MEAN_MOTION_DOT = .503E-5
MEAN_MOTION_DDOT = 0

CCSDS_OMM_VERS = 2.0
CREATION_DATE  = 
ORIGINATOR     = 

OBJECT_NAME    = HULIANWANG DIGUI-125
OBJECT_ID      = 2025-295G
CENTER_NAME    = EARTH
REF_FRAME      = TEME
TIME_SYSTEM    = UTC
MEAN_ELEMENT_THEORY = SGP/SGP4

EPOCH          = 2026-01-04T06:38:58.967232
MEAN_MOTION    = 14.24639203
ECCENTRICITY   = .00119537
INCLINATION    = 50.0000
RA_OF_ASC_NODE = 277.0994
ARG_OF_PERICENTER = 333.1588
MEAN_ANOMALY   = 26.8706

EPHEMERIS_TYPE = 0
CLASSIFICATION_TYPE = U
NORAD_CAT_ID   = 67065
ELEMENT_SET_NO = 999
REV_AT_EPOCH   = 333
BSTAR          = .28097207E-3
MEAN_MOTION_DOT = .498E-5
MEAN_MOTION_DDOT = 0

CCSDS_OMM_VERS = 2.0
CREATION_DATE  = 
ORIGINATOR     = 

OBJECT_NAME    = HULIANWANG DIGUI-126
OBJECT_ID      = 2025-295H
CENTER_NAME    = EARTH
REF_FRAME      = TEME
TIME_SYSTEM    = UTC
MEAN_ELEMENT_THEORY = SGP/SGP4

EPOCH          = 2026-01-04T06:37:28.876224
MEAN_MOTION    = 14.24659491
ECCENTRICITY   = .00112367
INCLINATION    = 50.0003
RA_OF_ASC_NODE = 277.0939
ARG_OF_PERICENTER = 326.7408
MEAN_ANOMALY   = 33.2798

EPHEMERIS_TYPE = 0
CLASSIFICATION_TYPE = U
NORAD_CAT_ID   = 67066
ELEMENT_SET_NO = 999
REV_AT_EPOCH   = 333
BSTAR          = .27503265E-3
MEAN_MOTION_DOT = .484E-5
MEAN_MOTION_DDOT = 0

CCSDS_OMM_VERS = 2.0
CREATION_DATE  = 
ORIGINATOR     = 

OBJECT_NAME    = HULIANWANG DIGUI-127
OBJECT_ID      = 2025-295J
CENTER_NAME    = EARTH
REF_FRAME      = TEME
TIME_SYSTEM    = UTC
MEAN_ELEMENT_THEORY = SGP/SGP4

EPOCH          = 2026-01-04T06:35:59.451360
MEAN_MOTION    = 14.24676000
ECCENTRICITY   = .00106684
INCLINATION    = 50.0041
RA_OF_ASC_NODE = 277.0983
ARG_OF_PERICENTER = 333.5302
MEAN_ANOMALY   = 26.5065

EPHEMERIS_TYPE = 0
CLASSIFICATION_TYPE = U
NORAD_CAT_ID   = 67067
ELEMENT_SET_NO = 999
REV_AT_EPOCH   = 333
BSTAR          = -.44732874E-3
MEAN_MOTION_DOT = -.1208E-4
MEAN_MOTION_DDOT = 0

CCSDS_OMM_VERS = 2.0
CREATION_DATE  = 
ORIGINATOR     = 

OBJECT_NAME    = CZ-12 R/B
OBJECT_ID      = 2025-295K
CENTER_NAME    = EARTH
REF_FRAME      = TEME
TIME_SYSTEM    = UTC
MEAN_ELEMENT_THEORY = SGP/SGP4

EPOCH          = 2026-01-04T05:34:03.096192
MEAN_MOTION    = 14.41135216
ECCENTRICITY   = .00568798
INCLINATION    = 49.9934
RA_OF_ASC_NODE = 274.8012
ARG_OF_PERICENTER = 216.5277
MEAN_ANOMALY   = 143.1757

EPHEMERIS_TYPE = 0
CLASSIFICATION_TYPE = U
NORAD_CAT_ID   = 67068
ELEMENT_SET_NO = 999
REV_AT_EPOCH   = 335
BSTAR          = .78332022E-4
MEAN_MOTION_DOT = .91E-6
MEAN_MOTION_DDOT = 0

CCSDS_OMM_VERS = 2.0
CREATION_DATE  = 
ORIGINATOR     = 

OBJECT_NAME    = XIWANG-5 02
OBJECT_ID      = 2025-296A
CENTER_NAME    = EARTH
REF_FRAME      = TEME
TIME_SYSTEM    = UTC
MEAN_ELEMENT_THEORY = SGP/SGP4

EPOCH          = 2026-01-04T07:35:31.392384
MEAN_MOTION    = 15.13082568
ECCENTRICITY   = .00024675
INCLINATION    = 41.3533
RA_OF_ASC_NODE = 333.1972
ARG_OF_PERICENTER = 325.0654
MEAN_ANOMALY   = 35.0004

EPHEMERIS_TYPE = 0
CLASSIFICATION_TYPE = U
NORAD_CAT_ID   = 67069
ELEMENT_SET_NO = 999
REV_AT_EPOCH   = 338
BSTAR          = .8404069E-3
MEAN_MOTION_DOT = .14987E-3
MEAN_MOTION_DDOT = 0

CCSDS_OMM_VERS = 2.0
CREATION_DATE  = 
ORIGINATOR     = 

OBJECT_NAME    = DEAR-5
OBJECT_ID      = 2025-296B
CENTER_NAME    = EARTH
REF_FRAME      = TEME
TIME_SYSTEM    = UTC
MEAN_ELEMENT_THEORY = SGP/SGP4

EPOCH          = 2026-01-04T06:49:52.067424
MEAN_MOTION    = 15.17065632
ECCENTRICITY   = .00198482
INCLINATION    = 41.3576
RA_OF_ASC_NODE = 332.9663
ARG_OF_PERICENTER = 178.7725
MEAN_ANOMALY   = 181.3148

EPHEMERIS_TYPE = 0
CLASSIFICATION_TYPE = U
NORAD_CAT_ID   = 67070
ELEMENT_SET_NO = 999
REV_AT_EPOCH   = 337
BSTAR          = .3939676E-3
MEAN_MOTION_DOT = .7792E-4
MEAN_MOTION_DDOT = 0

CCSDS_OMM_VERS = 2.0
CREATION_DATE  = 
ORIGINATOR     = 

OBJECT_NAME    = RAISE-4
OBJECT_ID      = 2025-297B
CENTER_NAME    = EARTH
REF_FRAME      = TEME
TIME_SYSTEM    = UTC
MEAN_ELEMENT_THEORY = SGP/SGP4

EPOCH          = 2026-01-04T04:54:53.566560
MEAN_MOTION    = 15.07390764
ECCENTRICITY   = .0011446
INCLINATION    = 97.4869
RA_OF_ASC_NODE = 156.1512
ARG_OF_PERICENTER = 236.1870
MEAN_ANOMALY   = 123.8269

EPHEMERIS_TYPE = 0
CLASSIFICATION_TYPE = U
NORAD_CAT_ID   = 67073
ELEMENT_SET_NO = 999
REV_AT_EPOCH   = 317
BSTAR          = .45830886E-3
MEAN_MOTION_DOT = .6886E-4
MEAN_MOTION_DDOT = 0

CCSDS_OMM_VERS = 2.0
CREATION_DATE  = 
ORIGINATOR     = 

OBJECT_NAME    = ELECTRON KICK STAGE R/B
OBJECT_ID      = 2025-297C
CENTER_NAME    = EARTH
REF_FRAME      = TEME
TIME_SYSTEM    = UTC
MEAN_ELEMENT_THEORY = SGP/SGP4

EPOCH          = 2026-01-03T22:38:06.705024
MEAN_MOTION    = 15.68882371
ECCENTRICITY   = .0161461
INCLINATION    = 97.4772
RA_OF_ASC_NODE = 157.5962
ARG_OF_PERICENTER = 188.6951
MEAN_ANOMALY   = 171.1508

EPHEMERIS_TYPE = 0
CLASSIFICATION_TYPE = U
NORAD_CAT_ID   = 67074
ELEMENT_SET_NO = 999
REV_AT_EPOCH   = 324
BSTAR          = .22001E-2
MEAN_MOTION_DOT = .539825E-2
MEAN_MOTION_DDOT = .9017E-4

CCSDS_OMM_VERS = 2.0
CREATION_DATE  = 
ORIGINATOR     = 

OBJECT_NAME    = STARLINK-36230
OBJECT_ID      = 2025-298A
CENTER_NAME    = EARTH
REF_FRAME      = TEME
TIME_SYSTEM    = UTC
MEAN_ELEMENT_THEORY = SGP/SGP4

EPOCH          = 2026-01-04T06:00:02.000160
MEAN_MOTION    = 15.52516211
ECCENTRICITY   = .00035758
INCLINATION    = 69.9991
RA_OF_ASC_NODE = 186.5763
ARG_OF_PERICENTER = 271.6754
MEAN_ANOMALY   = 117.5440

EPHEMERIS_TYPE = 0
CLASSIFICATION_TYPE = U
NORAD_CAT_ID   = 67075
ELEMENT_SET_NO = 999
REV_AT_EPOCH   = 459
BSTAR          = -.40039721E-3
MEAN_MOTION_DOT = -.24723E-3
MEAN_MOTION_DDOT = 0

CCSDS_OMM_VERS = 2.0
CREATION_DATE  = 
ORIGINATOR     = 

OBJECT_NAME    = STARLINK-36240
OBJECT_ID      = 2025-298B
CENTER_NAME    = EARTH
REF_FRAME      = TEME
TIME_SYSTEM    = UTC
MEAN_ELEMENT_THEORY = SGP/SGP4

EPOCH          = 2026-01-04T06:00:02.000160
MEAN_MOTION    = 15.52516656
ECCENTRICITY   = .00035028
INCLINATION    = 69.9991
RA_OF_ASC_NODE = 186.5738
ARG_OF_PERICENTER = 265.5739
MEAN_ANOMALY   = 125.5639

EPHEMERIS_TYPE = 0
CLASSIFICATION_TYPE = U
NORAD_CAT_ID   = 67076
ELEMENT_SET_NO = 999
REV_AT_EPOCH   = 459
BSTAR          = -.44830366E-3
MEAN_MOTION_DOT = -.27651E-3
MEAN_MOTION_DDOT = 0

CCSDS_OMM_VERS = 2.0
CREATION_DATE  = 
ORIGINATOR     = 

OBJECT_NAME    = STARLINK-36243
OBJECT_ID      = 2025-298C
CENTER_NAME    = EARTH
REF_FRAME      = TEME
TIME_SYSTEM    = UTC
MEAN_ELEMENT_THEORY = SGP/SGP4

EPOCH          = 2026-01-04T06:00:02.000160
MEAN_MOTION    = 15.52519447
ECCENTRICITY   = .00032302
INCLINATION    = 69.9991
RA_OF_ASC_NODE = 186.5711
ARG_OF_PERICENTER = 267.9657
MEAN_ANOMALY   = 125.0864

EPHEMERIS_TYPE = 0
CLASSIFICATION_TYPE = U
NORAD_CAT_ID   = 67077
ELEMENT_SET_NO = 999
REV_AT_EPOCH   = 459
BSTAR          = -.45431359E-3
MEAN_MOTION_DOT = -.28019E-3
MEAN_MOTION_DDOT = 0

CCSDS_OMM_VERS = 2.0
CREATION_DATE  = 
ORIGINATOR     = 

OBJECT_NAME    = STARLINK-36236
OBJECT_ID      = 2025-298D
CENTER_NAME    = EARTH
REF_FRAME      = TEME
TIME_SYSTEM    = UTC
MEAN_ELEMENT_THEORY = SGP/SGP4

EPOCH          = 2026-01-04T06:00:02.000160
MEAN_MOTION    = 15.52517656
ECCENTRICITY   = .00033783
INCLINATION    = 69.9991
RA_OF_ASC_NODE = 186.5692
ARG_OF_PERICENTER = 271.3235
MEAN_ANOMALY   = 123.6423

EPHEMERIS_TYPE = 0
CLASSIFICATION_TYPE = U
NORAD_CAT_ID   = 67078
ELEMENT_SET_NO = 999
REV_AT_EPOCH   = 459
BSTAR          = -.37819946E-3
MEAN_MOTION_DOT = -.23366E-3
MEAN_MOTION_DDOT = 0

CCSDS_OMM_VERS = 2.0
CREATION_DATE  = 
ORIGINATOR     = 

OBJECT_NAME    = STARLINK-36159
OBJECT_ID      = 2025-298E
CENTER_NAME    = EARTH
REF_FRAME      = TEME
TIME_SYSTEM    = UTC
MEAN_ELEMENT_THEORY = SGP/SGP4

EPOCH          = 2026-01-04T06:00:02.000160
MEAN_MOTION    = 15.42679816
ECCENTRICITY   = .00033652
INCLINATION    = 69.9995
RA_OF_ASC_NODE = 186.7335
ARG_OF_PERICENTER = 268.3413
MEAN_ANOMALY   = 343.2330

EPHEMERIS_TYPE = 0
CLASSIFICATION_TYPE = U
NORAD_CAT_ID   = 67079
ELEMENT_SET_NO = 999
REV_AT_EPOCH   = 459
BSTAR          = .11069689E-2
MEAN_MOTION_DOT = .48582E-3
MEAN_MOTION_DDOT = 0

CCSDS_OMM_VERS = 2.0
CREATION_DATE  = 
ORIGINATOR     = 

OBJECT_NAME    = STARLINK-36158
OBJECT_ID      = 2025-298F
CENTER_NAME    = EARTH
REF_FRAME      = TEME
TIME_SYSTEM    = UTC
MEAN_ELEMENT_THEORY = SGP/SGP4

EPOCH          = 2026-01-04T06:00:02.000160
MEAN_MOTION    = 15.52505501
ECCENTRICITY   = .0003542
INCLINATION    = 69.9992
RA_OF_ASC_NODE = 186.5649
ARG_OF_PERICENTER = 271.6926
MEAN_ANOMALY   = 127.1024

EPHEMERIS_TYPE = 0
CLASSIFICATION_TYPE = U
NORAD_CAT_ID   = 67080
ELEMENT_SET_NO = 999
REV_AT_EPOCH   = 453
BSTAR          = .75554655E-3
MEAN_MOTION_DOT = .46566E-3
MEAN_MOTION_DDOT = 0

